CRE (WAAS/PRN 138)      
1 28868U 05036A   23048.89903900 -.00000081  00000+0  00000+0 0  9999
2 28868   1.1825  91.3747 0001792 296.0304 336.5300  1.00271600 34267
IOR-W (EGNOS/PRN 126)   
1 28899U 05044A   23048.87999020  .00000004  00000+0  00000+0 0  9992
2 28899   3.7003  39.4461 0002631 298.2186 190.5831  1.00270897 63332
QZS-1 (QZSS/PRN 183)    
1 37158U 10045A   23047.67249877 -.00000213  00000+0  00000+0 0  9995
2 37158  42.5946 130.0265 0765612 270.7024 120.3634  1.00243318 45541
GSAT-8 (GAGAN/PRN 127)  
1 37605U 11022A   23049.43343344  .00000075  00000+0  00000+0 0  9993
2 37605   0.0102 165.8499 0007033 118.7047  74.6746  1.00271030 43060
LUCH 5A (SDCM/PRN 140)  
1 37951U 11074B   23048.73431766 -.00000057  00000+0  00000+0 0  9993
2 37951   5.6365  93.1470 0002420 244.2254 241.3600  1.00270558 41006
SES-5 (EGNOS/PRN 136)   
1 38652U 12036A   23049.02063205  .00000026  00000+0  00000+0 0  9998
2 38652   0.0663 292.0151 0001823  30.8663 197.2240  1.00274834 38882
GSAT-10 (GAGAN/PRN 128) 
1 38779U 12051B   23049.43901198 -.00000174  00000+0  00000+0 0  9997
2 38779   0.1007 272.9653 0003235 358.1577 118.0426  1.00271430 38110
LUCH 5B (SDCM/PRN 125)  
1 38977U 12061A   23048.84546924 -.00000143  00000+0  00000+0 0  9990
2 38977   7.8221  60.7406 0000194 217.7553 157.0738  1.00271357 37998
ASTRA 5B (EGNOS/PRN 123)
1 39617U 14011B   23049.10813192  .00000146  00000+0  00000+0 0  9995
2 39617   0.0813 298.1863 0003044  28.9470 251.0942  1.00268116 32685
LUCH 5V (SDCM/PRN 141)  
1 39727U 14023A   23048.87749560 -.00000277  00000+0  00000+0 0  9996
2 39727   2.0908  77.3998 0002379 275.6937 205.0806  1.00273781 32175
GSAT-15 (GAGAN/PRN 139) 
1 41028U 15065A   23049.12549458 -.00000266  00000+0  00000+0 0  9991
2 41028   0.1337 272.4439 0000297 348.5575  25.4697  1.00271835 26678
E 117 W B (WAAS/PRN 131)
1 41589U 16038B   23049.11231803 -.00000020  00000+0  00000+0 0  9993
2 41589   0.0109 246.3690 0000381  33.9253 150.9342  1.00272971 24522
SES-15 (WAAS/PRN 133)   
1 42709U 17026A   23047.96238098  .00000058  00000+0  00000+0 0  9990
2 42709   0.0235  10.4388 0000283  21.8314 331.6835  1.00269458 21940
QZS-2 (QZSS/PRN 184)    
1 42738U 17028A   23049.44886161 -.00000107  00000+0  00000+0 0  9995
2 42738  41.3645 260.6746 0748542 270.0893 280.2638  1.00269282 20954
QZS-3 (QZSS/PRN 189)    
1 42917U 17048A   23048.88382753 -.00000355  00000+0  00000+0 0  9996
2 42917   0.0564 177.6615 0002529 161.3514 253.7380  1.00274040 20077
QZS-4 (QZSS/PRN 185)    
1 42965U 17062A   23049.16513995 -.00000317  00000+0  00000+0 0  9999
2 42965  40.7029 358.9643 0748971 269.3493  77.7339  1.00287061 19629
BEIDOU-3 G1 (PRN 130)   
1 43683U 18085A   23048.87663764 -.00000286  00000+0  00000+0 0  9995
2 43683   1.1207 141.8378 0001989  26.6097  74.7866  1.00271158 15870
BEIDOU-3 G2 (PRN 144)   
1 45344U 20017A   23048.88809015 -.00000147  00000+0  00000+0 0  9997
2 45344   1.9886   5.3032 0000979  14.8929 167.1314  1.00270677 11077
BEIDOU-3 G3 (PRN 143)   
1 45807U 20040A   23049.08590708 -.00000361  00000+0  00000+0 0  9994
2 45807   0.9152 315.6241 0007549 337.5241 356.0922  1.00272118  9890
GALAXY 30 (WAAS/PRN 135)
1 46114U 20056C   23046.31374855  .00000042  00000+0  00000+0 0  9994
2 46114   0.0161 108.7693 0001844 234.6834 149.5345  1.00270649  9084
